norad_id,name,regime,epoch,line1,line2,inclination,eccentricity,mean_motion,raan,arg_pericenter,mean_anomaly
43231,O3B FM15,MEO,22076.54233375,1 43231U 18024A   22076.54233375 -.00000017  00000-0  00000-0 0    10\,2 43231   0.0469   2.8398 0002687 356.6498   0.5076  5.00115918 73354,0.0469,0.0002687,5.00115918,2.8398,356.6498,0.5076
43231,O3B FM15,MEO,22077.34189578,1 43231U 18024A   22077.34189578 -.00000016  00000-0  00000-0 0    13\,2 43231   0.0469   2.9081 0002688 357.3920 359.6978  5.00115917 73395,0.0469,0.0002688,5.00115917,2.9081,357.392,359.6978
43231,O3B FM15,MEO,22077.74167679,1 43231U 18024A   22077.74167679 -.00000016  00000-0  00000-0 0    15\,2 43231   0.0469   2.9442 0002688 357.7706 359.2835  5.00115917 73413,0.0469,0.0002688,5.00115917,2.9442,357.7706,359.2835
43231,O3B FM15,MEO,22078.34134836,1 43231U 18024A   22078.34134836 -.00000015  00000-0  00000-0 0    10\,2 43231   0.0469   3.0706 0002688 358.2901 358.6382  5.00115911 73448,0.0469,0.0002688,5.00115911,3.0706,358.2901,358.6382
43231,O3B FM15,MEO,22078.74112936,1 43231U 18024A   22078.74112936 -.00000015  00000-0  00000-0 0    11\,2 43231   0.0469   3.1087 0002688 358.6403 358.2503  5.00115910 73464,0.0469,0.0002688,5.0011591,3.1087,358.6403,358.2503
43231,O3B FM15,MEO,22079.34080088,1 43231U 18024A   22079.34080088 -.00000015  00000-0  00000-0 0    10\,2 43231   0.0469   3.1633 0002688 359.1952 357.6414  5.00115908 73490,0.0469,0.0002688,5.00115908,3.1633,359.1952,357.6414
43231,O3B FM15,MEO,22079.74058198,1 43231U 18024A   22079.74058198 -.00000015  00000-0  00000-0 0    11\,2 43231   0.0469   3.1474 0002689 359.5984 357.2543  5.00115898 73513,0.0469,0.0002689,5.00115898,3.1474,359.5984,357.2543
43231,O3B FM15,MEO,22080.14036298,1 43231U 18024A   22080.14036298 -.00000015  00000-0  00000-0 0    14\,2 43231   0.0469   3.1921 0002689 359.9670 356.8413  5.00115896 73537,0.0469,0.0002689,5.00115896,3.1921,359.967,356.8413
43231,O3B FM15,MEO,22081.33970597,1 43231U 18024A   22081.33970597 -.00000016  00000-0  00000-0 0    16\,2 43231   0.0469   3.3730 0002689   1.0802 355.5477  5.00115879 73592,0.0469,0.0002689,5.00115879,3.373,1.0802,355.5477
43231,O3B FM15,MEO,22082.13926775,1 43231U 18024A   22082.13926775 -.00000018  00000-0  00000-0 0    16\,2 43231   0.0469   3.4346 0002690   1.8626 354.7040  5.00115880 73634,0.0469,0.000269,5.0011588,3.4346,1.8626,354.704
43231,O3B FM15,MEO,22084.53795280,1 43231U 18024A   22084.53795280 -.00000024  00000-0  00000-0 0    14\,2 43231   0.0468   3.6795 0002691   4.0094 352.3122  5.00115875 73749,0.0468,0.0002691,5.00115875,3.6795,4.0094,352.3122
43231,O3B FM15,MEO,22085.33751439,1 43231U 18024A   22085.33751439 -.00000025  00000-0  00000-0 0    12\,2 43231   0.0468   3.7853 0002692   4.7345 351.4812  5.00115882 73780,0.0468,0.0002692,5.00115882,3.7853,4.7345,351.4812
43231,O3B FM15,MEO,22085.73729516,1 43231U 18024A   22085.73729516 -.00000026  00000-0  00000-0 0    18\,2 43231   0.0468   3.8367 0002693   5.0907 351.0736  5.00115890 73803,0.0468,0.0002693,5.0011589,3.8367,5.0907,351.0736
43231,O3B FM15,MEO,22086.33696656,1 43231U 18024A   22086.33696656 -.00000028  00000-0  00000-0 0    15\,2 43231   0.0468   4.0064 0002694   5.5601 350.4345  5.00115885 73844,0.0468,0.0002694,5.00115885,4.0064,5.5601,350.4345
43231,O3B FM15,MEO,22086.53685700,1 43231U 18024A   22086.53685700 -.00000028  00000-0  00000-0 0    15\,2 43231   0.0468   3.9503 0002694   5.7566 350.2942  5.00115885 73843,0.0468,0.0002694,5.00115885,3.9503,5.7566,350.2942
43231,O3B FM15,MEO,22087.33641885,1 43231U 18024A   22087.33641885 -.00000029  00000-0  00000-0 0    11\,2 43231   0.0468   4.1206 0002696   6.4516 349.4289  5.00115890 73896,0.0468,0.0002696,5.0011589,4.1206,6.4516,349.4289
43231,O3B FM15,MEO,22088.33587082,1 43231U 18024A   22088.33587082 -.00000030  00000-0  00000-0 0    12\,2 43231   0.0468   4.2352 0002696   7.3007 348.4658  5.00115932 73946,0.0468,0.0002696,5.00115932,4.2352,7.3007,348.4658
43231,O3B FM15,MEO,22088.53576144,1 43231U 18024A   22088.53576144 -.00000030  00000-0  00000-0 0    11\,2 43231   0.0468   4.1892 0002695   7.4468 348.3658  5.00115921 73953,0.0468,0.0002695,5.00115921,4.1892,7.4468,348.3658
43231,O3B FM15,MEO,22089.33532338,1 43231U 18024A   22089.33532338 -.00000030  00000-0  00000-0 0    17\,2 43231   0.0467   4.3269 0002695   8.2149 347.4606  5.00115939 73993,0.0467,0.0002695,5.00115939,4.3269,8.2149,347.4606
43231,O3B FM15,MEO,22089.73510449,1 43231U 18024A   22089.73510449 -.00000030  00000-0  00000-0 0    10\,2 43231   0.0467   4.2974 0002695   8.5826 347.1227  5.00115935 74016,0.0467,0.0002695,5.00115935,4.2974,8.5826,347.1227
43231,O3B FM15,MEO,22090.33477615,1 43231U 18024A   22090.33477615 -.00000029  00000-0  00000-0 0    13\,2 43231   0.0467   4.4309 0002696   9.0802 346.4922  5.00115938 74041,0.0467,0.0002696,5.00115938,4.4309,9.0802,346.4922
43231,O3B FM15,MEO,22090.73455730,1 43231U 18024A   22090.73455730 -.00000029  00000-0  00000-0 0    11\,2 43231   0.0467   4.4019 0002697   9.4667 346.1351  5.00115934 74064,0.0467,0.0002697,5.00115934,4.4019,9.4667,346.1351
43231,O3B FM15,MEO,22091.33422886,1 43231U 18024A   22091.33422886 -.00000029  00000-0  00000-0 0    14\,2 43231   0.0467   4.5244 0002698   9.9883 345.4917  5.00115947 74098,0.0467,0.0002698,5.00115947,4.5244,9.9883,345.4917
43231,O3B FM15,MEO,22091.53411928,1 43231U 18024A   22091.53411928 -.00000029  00000-0  00000-0 0    11\,2 43231   0.0467   4.5386 0002698  10.1666 345.2995  5.00115959 74107,0.0467,0.0002698,5.00115959,4.5386,10.1666,345.2995
43231,O3B FM15,MEO,22092.73346227,1 43231U 18024A   22092.73346227 -.00000028  00000-0  00000-0 0    12\,2 43231   0.0467   4.5866 0002700  11.2675 344.1518  5.00115988 74163,0.0467,0.00027,5.00115988,4.5866,11.2675,344.1518
43231,O3B FM15,MEO,22093.73291505,1 43231U 18024A   22093.73291505 -.00000027  00000-0  00000-0 0    10\,2 43231   0.0466   4.6849 0002702  12.1732 343.1488  5.00115986 74219,0.0466,0.0002702,5.00115986,4.6849,12.1732,343.1488
43231,O3B FM15,MEO,22094.33258669,1 43231U 18024A   22094.33258669 -.00000027  00000-0  00000-0 0    11\,2 43231   0.0466   4.7473 0002703  12.7209 342.5393  5.00115984 74248,0.0466,0.0002703,5.00115984,4.7473,12.7209,342.5393
43231,O3B FM15,MEO,22094.53247721,1 43231U 18024A   22094.53247721 -.00000027  00000-0  00000-0 0    10\,2 43231   0.0466   4.7650 0002703  12.9045 342.3382  5.00115985 74253,0.0466,0.0002703,5.00115985,4.765,12.9045,342.3382
43231,O3B FM15,MEO,22095.13214858,1 43231U 18024A   22095.13214858 -.00000027  00000-0  00000+0 0  3542\,2 43231   0.0466   4.8365 0002705  13.4020 341.7698  5.00116001 74453,0.0466,0.0002705,5.00116001,4.8365,13.402,341.7698
43231,O3B FM15,MEO,22095.33203905,1 43231U 18024A   22095.33203905 -.00000027  00000-0  00000-0 0    15\,2 43231   0.0466   4.8936 0002706  13.5245 341.5902  5.00116004 74299,0.0466,0.0002706,5.00116004,4.8936,13.5245,341.5902
43231,O3B FM15,MEO,22095.73181988,1 43231U 18024A   22095.73181988 -.00000027  00000-0  00000-0 0    15\,2 43231   0.0466   4.8478 0002707  13.8957 341.2652  5.00116016 74308,0.0466,0.0002707,5.00116016,4.8478,13.8957,341.2652
43231,O3B FM15,MEO,22096.13160086,1 43231U 18024A   22096.13160086 -.00000027  00000-0  00000-0 0    16\,2 43231   0.0466   4.9502 0002707  14.2243 340.8345  5.00116019 74330,0.0466,0.0002707,5.00116019,4.9502,14.2243,340.8345
43231,O3B FM15,MEO,22097.33094418,1 43231U 18024A   22097.33094418 -.00000026  00000-0  00000-0 0    13\,2 43231   0.0466   5.1003 0002709  15.4120 339.4976  5.00115991 74396,0.0466,0.0002709,5.00115991,5.1003,15.412,339.4976
43231,O3B FM15,MEO,22099.32984892,1 43231U 18024A   22099.32984892 -.00000024  00000-0  00000-0 0    16\,2 43231   0.0466   5.3145 0002714  17.3626 337.3341  5.00115991 74497,0.0466,0.0002714,5.00115991,5.3145,17.3626,337.3341
43231,O3B FM15,MEO,22100.32930104,1 43231U 18024A   22100.32930104 -.00000023  00000-0  00000-0 0    15\,2 43231   0.0465   5.3892 0002715  18.3236 336.2991  5.00116006 74547,0.0465,0.0002715,5.00116006,5.3892,18.3236,336.2991
43231,O3B FM15,MEO,22100.72908204,1 43231U 18024A   22100.72908204 -.00000022  00000-0  00000-0 0    14\,2 43231   0.0465   5.3571 0002716  18.7317 335.9234  5.00116000 74557,0.0465,0.0002716,5.00116,5.3571,18.7317,335.9234
43231,O3B FM15,MEO,22101.32875343,1 43231U 18024A   22101.32875343 -.00000021  00000-0  00000-0 0    17\,2 43231   0.0465   5.4822 0002718  19.3031 335.2274  5.00116001 74591,0.0465,0.0002718,5.00116001,5.4822,19.3031,335.2274
43231,O3B FM15,MEO,22101.72853469,1 43231U 18024A   22101.72853469 -.00000021  00000-0  00000-0 0    16\,2 43231   0.0465   5.5252 0002720  19.6777 334.8102  5.00115975 74619,0.0465,0.000272,5.00115975,5.5252,19.6777,334.8102
43231,O3B FM15,MEO,22102.52809655,1 43231U 18024A   22102.52809655 -.00000019  00000-0  00000-0 0    10\,2 43231   0.0464   5.5393 0002722  20.5105 333.9639  5.00115979 74655,0.0464,0.0002722,5.00115979,5.5393,20.5105,333.9639
43231,O3B FM15,MEO,22102.72798717,1 43231U 18024A   22102.72798717 -.00000019  00000-0  00000-0 0    18\,2 43231   0.0464   5.5526 0002722  20.7146 333.7467  5.00115967 74665,0.0464,0.0002722,5.00115967,5.5526,20.7146,333.7467
43231,O3B FM15,MEO,22103.32765875,1 43231U 18024A   22103.32765875 -.00000018  00000-0  00000-0 0    13\,2 43231   0.0464   5.6562 0002724  21.2609 333.0973  5.00115955 74693,0.0464,0.0002724,5.00115955,5.6562,21.2609,333.0973
43231,O3B FM15,MEO,22103.72743976,1 43231U 18024A   22103.72743976 -.00000017  00000-0  00000-0 0    14\,2 43231   0.0464   5.6227 0002724  21.6808 332.7114  5.00115952 74719,0.0464,0.0002724,5.00115952,5.6227,21.6808,332.7114
43231,O3B FM15,MEO,22104.32711102,1 43231U 18024A   22104.32711102 -.00000016  00000-0  00000-0 0    16\,2 43231   0.0464   5.7223 0002725  22.2619 332.0313  5.00115968 74748,0.0464,0.0002725,5.00115968,5.7223,22.2619,332.0313
